NORAD_CAT_ID,OBJECT_NAME,OBJECT_TYPE,EPOCH,MEAN_MOTION,ECCENTRICITY,INCLINATION,RA_OF_ASC_NODE,ARG_OF_PERICENTER,MEAN_ANOMALY,BSTAR,MEAN_MOTION_DOT,MEAN_MOTION_DDOT,TLE_LINE0,TLE_LINE1,TLE_LINE2,SEMIMAJOR_AXIS,PERIOD,APOGEE,PERIGEE,DECAYED
50814.0,STARLINK-3324,PAYLOAD,2022-04-28 14:00:01,15.08846681,0.0001406999999999,53.2168,23.8061,66.6088,234.8153,0.0010779,0.00016912,0.0,0 STARLINK-3324,1 50814U 22001M   22118.58334491  .00016912  00000-0  10779-2 0  9999,2 50814  53.2168  23.8061 0001407  66.6088 234.8153 15.08846681 18654,6917.86,95.437,540.698,538.752,0.0
50814.0,STARLINK-3324,PAYLOAD,2022-04-29 06:00:00,15.08859416,0.0001608,53.2168,20.8152,58.8609,265.7893,-0.0023087,-0.00036863,0.0,0 STARLINK-3324,1 50814U 22001M   22119.25001157 -.00036863  00000-0 -23087-2 0  9999,2 50814  53.2168  20.8152 0001608  58.8609 265.7893 15.08859416 18752,6917.821,95.436,540.798,538.5740000000002,0.0
50814.0,STARLINK-3324,PAYLOAD,2022-04-29 14:00:01,15.08793867,0.0001579,53.2171,19.317,68.1092,268.1527,0.0045262,0.00072395,0.0,0 STARLINK-3324,1 50814U 22001M   22119.58334491  .00072395  00000-0  45262-2 0  9992,2 50814  53.2171  19.3170 0001579  68.1092 268.1527 15.08793867  3613,6918.021,95.44,540.979,538.794,0.0
50814.0,STARLINK-3324,PAYLOAD,2022-04-29 22:00:00,15.08861133,0.0001651,53.2174,17.822,63.6185,284.2073,-0.0034699,-0.00055121,0.0,0 STARLINK-3324,1 50814U 22001M   22119.91667824 -.00055121  00000-0 -34699-2 0  9990,2 50814  53.2174  17.8220 0001651  63.6185 284.2073 15.08861133 18858,6917.816,95.436,540.823,538.539,0.0
50814.0,STARLINK-3324,PAYLOAD,2022-04-30 14:00:01,15.08792638,0.0001429,53.2175,14.8281,63.777,307.2327,0.0044637,0.00071379,0.0,0 STARLINK-3324,1 50814U 22001M   22120.58334491  .00071379  00000-0  44637-2 0  9990,2 50814  53.2175  14.8281 0001429  63.7770 307.2327 15.08792638 18959,6918.025,95.441,540.879,538.9019999999998,0.0
50814.0,STARLINK-3324,PAYLOAD,2022-04-30 22:00:00,15.08856007,0.0001516,53.2176,13.3333,58.4208,324.1534,-0.003522,-0.0005593,0.0,0 STARLINK-3324,1 50814U 22001M   22120.91667824 -.00055930  00000-0 -35220-2 0  9991,2 50814  53.2176  13.3333 0001516  58.4208 324.1534 15.08856007  3577,6917.831,95.437,540.745,538.648,0.0
50814.0,STARLINK-3324,PAYLOAD,2022-05-01 06:00:00,15.08825684,0.0001478,53.2174,11.8372,53.1894,340.9722,0.000964,0.00015081,0.0,0 STARLINK-3324,1 50814U 22001M   22121.25001157  .00015081  00000-0  96400-3 0  9999,2 50814  53.2174  11.8372 0001478  53.1894 340.9722 15.08825684 19053,6917.924,95.438,540.812,538.7669999999998,0.0
50814.0,STARLINK-3324,PAYLOAD,2022-05-01 14:00:01,15.08814606,0.0001395,53.2176,10.3392,63.8043,341.9443,0.0013437999999999,0.00021148,0.0,0 STARLINK-3324,1 50814U 22001M   22121.58334491  .00021148  00000-0  13438-2 0  9995,2 50814  53.2176  10.3392 0001395  63.8043 341.9443 15.08814606  3587,6917.958000000001,95.439,540.788,538.8580000000002,0.0
50814.0,STARLINK-3324,PAYLOAD,2022-05-01 22:00:01,15.08830557,0.0001583,53.2177,8.8443,60.3592,357.0239,-0.00059193,-9.694e-05,0.0,0 STARLINK-3324,1 50814U 22001M   22121.91668981 -.00009694  00000-0 -59193-3 0  9999,2 50814  53.2177   8.8443 0001583  60.3592 357.0239 15.08830557 19151,6917.909000000002,95.438,540.869,538.679,0.0
50814.0,STARLINK-3324,PAYLOAD,2022-05-02 14:00:01,15.08792908,0.0001547,53.2174,5.8502,68.0352,12.4503,0.0035579,0.00056719,0.0,0 STARLINK-3324,1 50814U 22001M   22122.58334491  .00056719  00000-0  35579-2 0  9998,2 50814  53.2174   5.8502 0001547  68.0352  12.4503 15.08792908  3606,6918.024,95.441,540.96,538.819,0.0
50814.0,STARLINK-3324,PAYLOAD,2022-05-02 22:00:01,15.08834768,0.0001667,53.2174,4.3555,63.4247,28.686,-0.00066631,-0.00010875,0.0,0 STARLINK-3324,1 50814U 22001M   22122.91668981 -.00010875  00000-0 -66631-3 0  9998,2 50814  53.2174   4.3555 0001667  63.4247  28.6860 15.08834768  3610,6917.896,95.438,540.915,538.6080000000002,0.0
50814.0,STARLINK-3324,PAYLOAD,2022-05-03 04:00:00,15.08819847,0.0001667,53.217,3.2336,59.4247,311.3085,0.0023105,0.00036655,0.0,0 STARLINK-3324,1 50814U 22001M   22123.16667824  .00036655  00000-0  23105-2 0  9991,2 50814  53.2170   3.2336 0001667  59.4247 311.3085 15.08819847 19345,6917.941999999999,95.439,540.96,538.654,0.0
50814.0,STARLINK-3324,PAYLOAD,2022-05-03 14:00:01,15.0882479,0.0001547,53.2169,1.3612,70.0979,45.1248,0.0030765,0.00048995,0.0,0 STARLINK-3324,1 50814U 22001M   22123.58334491  .00048995  00000-0  30765-2 0  9998,2 50814  53.2169   1.3612 0001547  70.0979  45.1248 15.08824790  3605,6917.927,95.439,540.862,538.722,0.0
50814.0,STARLINK-3324,PAYLOAD,2022-05-03 22:00:00,15.08870172,0.000164,53.2167,359.8665,63.9938,62.8275,-0.0026027,-0.00041506,0.0,0 STARLINK-3324,1 50814U 22001M   22123.91667824 -.00041506  00000-0 -26027-2 0  9993,2 50814  53.2167 359.8665 0001640  63.9938  62.8275 15.08870172 19453,6917.788000000001,95.436,540.788,538.519,0.0
50814.0,STARLINK-3324,PAYLOAD,2022-05-04 14:00:01,15.08834931,0.0001434,53.2164,356.872,69.6129,80.4217,0.001587,0.00025056,0.0,0 STARLINK-3324,1 50814U 22001M   22124.58334491  .00025056  00000-0  15870-2 0  9992,2 50814  53.2164 356.8720 0001434  69.6129  80.4217 15.08834931 19551,6917.896,95.438,540.753,538.769,0.0
50814.0,STARLINK-3324,PAYLOAD,2022-05-04 22:00:01,15.08843038,0.0001489,53.2163,355.3773,61.5458,100.162,-0.0011859,-0.00019113,0.0,0 STARLINK-3324,1 50814U 22001M   22124.91668981 -.00019113  00000-0 -11859-2 0  9995,2 50814  53.2163 355.3773 0001489  61.5458 100.1620 15.08843038  3603,6917.871,95.437,540.766,538.706,0.0
50814.0,STARLINK-3324,PAYLOAD,2022-05-05 06:00:00,15.08852925,0.0001460999999999,53.216,353.8802,59.7247,113.5063,-0.0009693,-0.00015687,0.0,0 STARLINK-3324,1 50814U 22001M   22125.25001157 -.00015687  00000-0 -96930-3 0  9995,2 50814  53.2160 353.8802 0001461  59.7247 113.5063 15.08852925 19657,6917.840999999999,95.437,540.717,538.695,0.0
50814.0,STARLINK-3324,PAYLOAD,2022-05-05 14:00:01,15.08846746,0.0001457,53.2162,352.3827,69.1989,115.6351,-0.00048713,-8.034e-05,0.0,0 STARLINK-3324,1 50814U 22001M   22125.58334491 -.00008034  00000-0 -48713-3 0  9995,2 50814  53.2162 352.3827 0001457  69.1989 115.6351 15.08846746  3563,6917.86,95.437,540.7330000000002,538.717,0.0
50814.0,STARLINK-3324,PAYLOAD,2022-05-05 22:00:00,15.08829221,0.0001643,53.2161,350.88800000000015,62.4841,133.9533,0.00029034,4.334e-05,0.0,0 STARLINK-3324,1 50814U 22001M   22125.91667824  .00004334  00000-0  29034-3 0  9993,2 50814  53.2161 350.8880 0001643  62.4841 133.9533 15.08829221  3568,6917.913000000001,95.438,540.915,538.6419999999998,0.0
50814.0,STARLINK-3324,PAYLOAD,2022-05-06 08:00:01,15.08852233,0.0001579,53.2163,349.0162,64.1145,236.8033,-0.0011931,-0.00019232,0.0,0 STARLINK-3324,1 50814U 22001M   22126.33334491 -.00019232  00000-0 -11931-2 0  9992,2 50814  53.2163 349.0162 0001579  64.1145 236.8033 15.08852233 19820,6917.843000000003,95.437,540.8,538.616,0.0
50814.0,STARLINK-3324,PAYLOAD,2022-05-06 14:00:01,15.0884844,0.0001623,53.2163,347.8933,70.1302,149.4885,-0.00072344,-0.00011786,0.0,0 STARLINK-3324,1 50814U 22001M   22126.58334491 -.00011786  00000-0 -72344-3 0  9991,2 50814  53.2163 347.8933 0001623  70.1302 149.4885 15.08848440  3613,6917.855,95.437,540.842,538.597,0.0
50814.0,STARLINK-3324,PAYLOAD,2022-05-07 14:00:01,15.08813093,0.0001628,53.2168,343.404,68.9169,185.4758,0.0020421,0.00032338,0.0,0 STARLINK-3324,1 50814U 22001M   22127.58334491  .00032338  00000-0  20421-2 0  9994,2 50814  53.2168 343.4040 0001628  68.9169 185.4758 15.08813093 20018,6917.9630000000025,95.439,540.9540000000002,538.701,0.0
50814.0,STARLINK-3324,PAYLOAD,2022-05-07 22:00:00,15.08822683,0.0001768,53.2169,341.9095,61.3631,204.609,0.00095032,0.00014862,0.0,0 STARLINK-3324,1 50814U 22001M   22127.91667824  .00014862  00000-0  95032-3 0  9993,2 50814  53.2169 341.9095 0001768  61.3631 204.6090 15.08822683  3602,6917.933000000001,95.439,541.021,538.575,0.0
50814.0,STARLINK-3324,PAYLOAD,2022-05-08 06:00:00,15.08854347,0.0001675999999999,53.2169,340.4123,62.2744,215.2736,-0.0017698,-0.00028355,0.0,0 STARLINK-3324,1 50814U 22001M   22128.25001157 -.00028355  00000-0 -17698-2 0  9997,2 50814  53.2169 340.4123 0001676  62.2744 215.2736 15.08854347 20113,6917.837,95.437,540.861,538.5419999999998,0.0
50814.0,STARLINK-3324,PAYLOAD,2022-05-08 14:00:01,15.088498800000002,0.0001622,53.2173,338.915,69.1151,220.0296,0.00017291,2.466e-05,0.0,0 STARLINK-3324,1 50814U 22001M   22128.58334491  .00002466  00000-0  17291-3 0  9996,2 50814  53.2173 338.9150 0001622  69.1151 220.0296 15.08849880  3593,6917.85,95.437,540.837,538.5930000000002,0.0
50814.0,STARLINK-3324,PAYLOAD,2022-05-08 20:00:01,15.08852199,0.0001675999999999,53.2172,337.7943,61.8038,146.0513,-0.0026061,-0.00041539,0.0,0 STARLINK-3324,1 50814U 22001M   22128.83334491 -.00041539  00000-0 -26061-2 0  9994,2 50814  53.2172 337.7943 0001676  61.8038 146.0513 15.08852199 20192,6917.843000000003,95.437,540.868,538.549,0.0
50814.0,STARLINK-3324,PAYLOAD,2022-05-08 22:00:00,15.08827386,0.0001709,53.2173,337.4205,60.1502,240.6106,0.00028577,4.261e-05,0.0,0 STARLINK-3324,1 50814U 22001M   22128.91667824  .00004261  00000-0  28577-3 0  9996,2 50814  53.2173 337.4205 0001709  60.1502 240.6106 15.08827386  3590,6917.919,95.438,540.966,538.602,0.0
50814.0,STARLINK-3324,PAYLOAD,2022-05-09 06:00:00,15.08850758,0.0001576999999999,53.2172,335.9232,61.2532,251.086,-0.0016852999999999,-0.00027017,0.0,0 STARLINK-3324,1 50814U 22001M   22129.25001157 -.00027017  00000-0 -16853-2 0  9994,2 50814  53.2172 335.9232 0001577  61.2532 251.0860 15.08850758 20265,6917.848000000001,95.437,540.803,538.622,0.0
50814.0,STARLINK-3324,PAYLOAD,2022-05-09 14:00:01,15.08844624,0.0001516,53.2175,334.426,68.3257,255.6713,0.0013289,0.00020927,0.0,0 STARLINK-3324,1 50814U 22001M   22129.58335648  .00020927  00000-0  13289-2 0  9996,2 50814  53.2175 334.4260 0001516  68.3257 255.6713 15.08844624  3609,6917.866,95.437,540.78,538.683,0.0
